{
  "type": "FeatureCollection",
  "features": [
    {
      "type": "Feature",
      "properties": {
        "norad_id": 66632,
        "name": "STARLINK-35973",
        "group": "last-30-days",
        "lat": -29.992940578612913,
        "lon": -31.284108033430478,
        "alt_km": 451.84808717029136,
        "timestamp": "2025-12-26T07:29:17.191657+00:00",
        "meta_object_name": "STARLINK-35973",
        "meta_object_id": "2025-271R",
        "meta_epoch": "2025-12-25T19:38:14.121600",
        "meta_mean_motion": 15.39623686,
        "meta_eccentricity": 0.00014116,
        "meta_inclination": 53.1597,
        "meta_ra_of_asc_node": 125.4024,
        "meta_arg_of_pericenter": 47.8203,
        "meta_mean_anomaly": 312.2922,
        "meta_ephemeris_type": 0,
        "meta_classification_type": "U",
        "meta_norad_cat_id": 66632,
        "meta_element_set_no": 999,
        "meta_rev_at_epoch": 618,
        "meta_bstar": 0.0013165644,
        "meta_mean_motion_dot": 0.00052633,
        "meta_mean_motion_ddot": 0,
        "tle_line1": "1 66632U 25271R   25359.81821900  .00052633  00000+0  13166-2 0  9990",
        "tle_line2": "2 66632  53.1597 125.4024 0001411  47.8203 312.2922 15.39623686  6189"
      },
      "geometry": {
        "type": "Point",
        "coordinates": [
          -31.284108033430478,
          -29.992940578612913
        ]
      }
    },
    {
      "type": "Feature",
      "properties": {
        "norad_id": 66633,
        "name": "STARLINK-35948",
        "group": "last-30-days",
        "lat": -31.351534687720022,
        "lon": -29.753941350124624,
        "alt_km": 451.30763078951713,
        "timestamp": "2025-12-26T07:29:17.191679+00:00",
        "meta_object_name": "STARLINK-35948",
        "meta_object_id": "2025-271S",
        "meta_epoch": "2025-12-25T14:57:19.488672",
        "meta_mean_motion": 15.39627398,
        "meta_eccentricity": 9.43e-05,
        "meta_inclination": 53.1609,
        "meta_ra_of_asc_node": 126.3158,
        "meta_arg_of_pericenter": 93.7563,
        "meta_mean_anomaly": 266.3549,
        "meta_ephemeris_type": 0,
        "meta_classification_type": "U",
        "meta_norad_cat_id": 66633,
        "meta_element_set_no": 999,
        "meta_rev_at_epoch": 619,
        "meta_bstar": 0.0011483,
        "meta_mean_motion_dot": 0.0004582,
        "meta_mean_motion_ddot": 0,
        "tle_line1": "1 66633U 25271S   25359.62314223  .00045820  00000+0  11483-2 0  9995",
        "tle_line2": "2 66633  53.1609 126.3158 0000943  93.7563 266.3549 15.39627398  6199"
      },
      "geometry": {
        "type": "Point",
        "coordinates": [
          -29.753941350124624,
          -31.351534687720022
        ]
      }
    },
    {
      "type": "Feature",
      "properties": {
        "norad_id": 66634,
        "name": "STARLINK-35967",
        "group": "last-30-days",
        "lat": -47.09329053439039,
        "lon": -3.2191852983128433,
        "alt_km": 452.4422673932786,
        "timestamp": "2025-12-26T07:29:17.191690+00:00",
        "meta_object_name": "STARLINK-35967",
        "meta_object_id": "2025-271T",
        "meta_epoch": "2025-12-25T16:24:07.011072",
        "meta_mean_motion": 15.39630052,
        "meta_eccentricity": 0.00012375,
        "meta_inclination": 53.1615,
        "meta_ra_of_asc_node": 125.9827,
        "meta_arg_of_pericenter": 86.7677,
        "meta_mean_anomaly": 273.347,
        "meta_ephemeris_type": 0,
        "meta_classification_type": "U",
        "meta_norad_cat_id": 66634,
        "meta_element_set_no": 999,
        "meta_rev_at_epoch": 616,
        "meta_bstar": 0.0012795364,
        "meta_mean_motion_dot": 0.00051142,
        "meta_mean_motion_ddot": 0,
        "tle_line1": "1 66634U 25271T   25359.68341448  .00051142  00000+0  12795-2 0  9992",
        "tle_line2": "2 66634  53.1615 125.9827 0001237  86.7677 273.3470 15.39630052  6169"
      },
      "geometry": {
        "type": "Point",
        "coordinates": [
          -3.2191852983128433,
          -47.09329053439039
        ]
      }
    },
    {
      "type": "Feature",
      "properties": {
        "norad_id": 66635,
        "name": "STARLINK-35955",
        "group": "last-30-days",
        "lat": -45.14068802797413,
        "lon": 74.03294780877778,
        "alt_km": 452.2432191893977,
        "timestamp": "2025-12-26T07:29:17.191701+00:00",
        "meta_object_name": "STARLINK-35955",
        "meta_object_id": "2025-271U",
        "meta_epoch": "2025-12-25T19:17:41.940096",
        "meta_mean_motion": 15.39634184,
        "meta_eccentricity": 0.00013376,
        "meta_inclination": 53.1599,
        "meta_ra_of_asc_node": 125.3143,
        "meta_arg_of_pericenter": 69.5636,
        "meta_mean_anomaly": 290.5513,
        "meta_ephemeris_type": 0,
        "meta_classification_type": "U",
        "meta_norad_cat_id": 66635,
        "meta_element_set_no": 999,
        "meta_rev_at_epoch": 622,
        "meta_bstar": 0.0013073376,
        "meta_mean_motion_dot": 0.00052277,
        "meta_mean_motion_ddot": 0,
        "tle_line1": "1 66635U 25271U   25359.80395764  .00052277  00000+0  13073-2 0  9997",
        "tle_line2": "2 66635  53.1599 125.3143 0001337  69.5636 290.5513 15.39634184  6227"
      },
      "geometry": {
        "type": "Point",
        "coordinates": [
          74.03294780877778,
          -45.14068802797413
        ]
      }
    },
    {
      "type": "Feature",
      "properties": {
        "norad_id": 66636,
        "name": "STARLINK-35968",
        "group": "last-30-days",
        "lat": -53.09892012800974,
        "lon": 36.210826606420966,
        "alt_km": 452.62837878237497,
        "timestamp": "2025-12-26T07:29:17.191711+00:00",
        "meta_object_name": "STARLINK-35968",
        "meta_object_id": "2025-271V",
        "meta_epoch": "2025-12-25T17:50:54.548160",
        "meta_mean_motion": 15.39645114,
        "meta_eccentricity": 0.0001585,
        "meta_inclination": 53.1624,
        "meta_ra_of_asc_node": 125.65,
        "meta_arg_of_pericenter": 46.0423,
        "meta_mean_anomaly": 314.0712,
        "meta_ephemeris_type": 0,
        "meta_classification_type": "U",
        "meta_norad_cat_id": 66636,
        "meta_element_set_no": 999,
        "meta_rev_at_epoch": 621,
        "meta_bstar": 0.00094429831,
        "meta_mean_motion_dot": 0.00037589,
        "meta_mean_motion_ddot": 0,
        "tle_line1": "1 66636U 25271V   25359.74368690  .00037589  00000+0  94430-3 0  9995",
        "tle_line2": "2 66636  53.1624 125.6500 0001585  46.0423 314.0712 15.39645114  6213"
      },
      "geometry": {
        "type": "Point",
        "coordinates": [
          36.210826606420966,
          -53.09892012800974
        ]
      }
    },
    {
      "type": "Feature",
      "properties": {
        "norad_id": 66637,
        "name": "STARLINK-35953",
        "group": "last-30-days",
        "lat": -28.522187810223663,
        "lon": 98.82346067337946,
        "alt_km": 451.0375434074167,
        "timestamp": "2025-12-26T07:29:17.191721+00:00",
        "meta_object_name": "STARLINK-35953",
        "meta_object_id": "2025-271W",
        "meta_epoch": "2025-12-25T17:37:32.185920",
        "meta_mean_motion": 15.39634333,
        "meta_eccentricity": 0.00014017,
        "meta_inclination": 53.16,
        "meta_ra_of_asc_node": 125.5901,
        "meta_arg_of_pericenter": 68.9063,
        "meta_mean_anomaly": 291.2092,
        "meta_ephemeris_type": 0,
        "meta_classification_type": "U",
        "meta_norad_cat_id": 66637,
        "meta_element_set_no": 999,
        "meta_rev_at_epoch": 621,
        "meta_bstar": 0.0012603562,
        "meta_mean_motion_dot": 0.00050371,
        "meta_mean_motion_ddot": 0,
        "tle_line1": "1 66637U 25271W   25359.73440030  .00050371  00000+0  12604-2 0  9990",
        "tle_line2": "2 66637  53.1600 125.5901 0001401  68.9063 291.2092 15.39634333  6210"
      },
      "geometry": {
        "type": "Point",
        "coordinates": [
          98.82346067337946,
          -28.522187810223663
        ]
      }
    },
    {
      "type": "Feature",
      "properties": {
        "norad_id": 66638,
        "name": "STARLINK-35972",
        "group": "last-30-days",
        "lat": 11.822506425715122,
        "lon": 131.79345453546705,
        "alt_km": 445.98627968244455,
        "timestamp": "2025-12-26T07:29:17.191731+00:00",
        "meta_object_name": "STARLINK-35972",
        "meta_object_id": "2025-271X",
        "meta_epoch": "2025-12-25T18:57:38.189376",
        "meta_mean_motion": 15.39633138,
        "meta_eccentricity": 0.00010845,
        "meta_inclination": 53.1593,
        "meta_ra_of_asc_node": 125.2248,
        "meta_arg_of_pericenter": 76.5796,
        "meta_mean_anomaly": 283.5329,
        "meta_ephemeris_type": 0,
        "meta_classification_type": "U",
        "meta_norad_cat_id": 66638,
        "meta_element_set_no": 999,
        "meta_rev_at_epoch": 622,
        "meta_bstar": 0.00089191081,
        "meta_mean_motion_dot": 0.00035457,
        "meta_mean_motion_ddot": 0,
        "tle_line1": "1 66638U 25271X   25359.79002534  .00035457  00000+0  89191-3 0  9994",
        "tle_line2": "2 66638  53.1593 125.2248 0001084  76.5796 283.5329 15.39633138  6228"
      },
      "geometry": {
        "type": "Point",
        "coordinates": [
          131.79345453546705,
          11.822506425715122
        ]
      }
    }
  ]
}